[{"OBJECT_NAME":"STARLINK-32369","OBJECT_ID":"2024-154Q","EPOCH":"2025-11-10T20:30:54.360576","MEAN_MOTION":15.30194139,"ECCENTRICITY":0.00012985,"INCLINATION":53.1609,"RA_OF_ASC_NODE":115.6184,"ARG_OF_PERICENTER":83.2372,"MEAN_ANOMALY":276.8777,"EPHEMERIS_TYPE":0,"CLASSIFICATION_TYPE":"U","NORAD_CAT_ID":60917,"ELEMENT_SET_NO":999,"REV_AT_EPOCH":6814,"BSTAR":6.748658e-5,"MEAN_MOTION_DOT":1.64e-5,"MEAN_MOTION_DDOT":0},{"OBJECT_NAME":"STARLINK-32317","OBJECT_ID":"2024-154R","EPOCH":"2025-11-10T10:36:21.491424","MEAN_MOTION":15.3019745,"ECCENTRICITY":0.00011778,"INCLINATION":53.1594,"RA_OF_ASC_NODE":118.0198,"ARG_OF_PERICENTER":92.3485,"MEAN_ANOMALY":267.7651,"EPHEMERIS_TYPE":0,"CLASSIFICATION_TYPE":"U","NORAD_CAT_ID":60918,"ELEMENT_SET_NO":999,"REV_AT_EPOCH":6807,"BSTAR":1.6015699e-5,"MEAN_MOTION_DOT":1.15e-6,"MEAN_MOTION_DDOT":0},{"OBJECT_NAME":"STARLINK-32367","OBJECT_ID":"2024-154S","EPOCH":"2025-11-10T20:14:11.221152","MEAN_MOTION":15.30179861,"ECCENTRICITY":0.00017363,"INCLINATION":53.1572,"RA_OF_ASC_NODE":115.5448,"ARG_OF_PERICENTER":91.847,"MEAN_ANOMALY":268.273,"EPHEMERIS_TYPE":0,"CLASSIFICATION_TYPE":"U","NORAD_CAT_ID":60919,"ELEMENT_SET_NO":999,"REV_AT_EPOCH":6814,"BSTAR":9.1824755e-5,"MEAN_MOTION_DOT":2.359e-5,"MEAN_MOTION_DDOT":0},{"OBJECT_NAME":"STARLINK-32345","OBJECT_ID":"2024-154T","EPOCH":"2025-11-10T20:02:11.681952","MEAN_MOTION":15.30195581,"ECCENTRICITY":7.751e-5,"INCLINATION":53.1616,"RA_OF_ASC_NODE":116.2041,"ARG_OF_PERICENTER":113.2144,"MEAN_ANOMALY":246.8939,"EPHEMERIS_TYPE":0,"CLASSIFICATION_TYPE":"U","NORAD_CAT_ID":60920,"ELEMENT_SET_NO":999,"REV_AT_EPOCH":6814,"BSTAR":1.186516e-5,"MEAN_MOTION_DOT":-7.0e-8,"MEAN_MOTION_DDOT":0},{"OBJECT_NAME":"STARLINK-32356","OBJECT_ID":"2024-154U","EPOCH":"2025-11-10T20:44:35.296224","MEAN_MOTION":15.30196281,"ECCENTRICITY":0.0001119,"INCLINATION":53.1588,"RA_OF_ASC_NODE":115.6725,"ARG_OF_PERICENTER":71.937,"MEAN_ANOMALY":288.1752,"EPHEMERIS_TYPE":0,"CLASSIFICATION_TYPE":"U","NORAD_CAT_ID":60921,"ELEMENT_SET_NO":999,"REV_AT_EPOCH":6815,"BSTAR":3.0306336e-5,"MEAN_MOTION_DOT":5.38e-6,"MEAN_MOTION_DDOT":0},{"OBJECT_NAME":"STARLINK-32274","OBJECT_ID":"2024-154V","EPOCH":"2025-11-10T18:00:47.498400","MEAN_MOTION":15.30195675,"ECCENTRICITY":0.00010455,"INCLINATION":53.1612,"RA_OF_ASC_NODE":116.3889,"ARG_OF_PERICENTER":95.117,"MEAN_ANOMALY":264.995,"EPHEMERIS_TYPE":0,"CLASSIFICATION_TYPE":"U","NORAD_CAT_ID":60922,"ELEMENT_SET_NO":999,"REV_AT_EPOCH":6813,"BSTAR":2.6360877e-5,"MEAN_MOTION_DOT":4.22e-6,"MEAN_MOTION_DDOT":0},{"OBJECT_NAME":"STARLINK-32373","OBJECT_ID":"2024-154W","EPOCH":"2025-11-10T21:22:34.396896","MEAN_MOTION":15.30195414,"ECCENTRICITY":0.00011193,"INCLINATION":53.161,"RA_OF_ASC_NODE":115.8432,"ARG_OF_PERICENTER":92.8451,"MEAN_ANOMALY":267.2678,"EPHEMERIS_TYPE":0,"CLASSIFICATION_TYPE":"U","NORAD_CAT_ID":60923,"ELEMENT_SET_NO":999,"REV_AT_EPOCH":6815,"BSTAR":1.5973146e-5,"MEAN_MOTION_DOT":1.14e-6,"MEAN_MOTION_DDOT":0},{"OBJECT_NAME":"STARLINK-11239 [DTC]","OBJECT_ID":"2024-155A","EPOCH":"2025-11-10T17:32:26.779200","MEAN_MOTION":15.6970869,"ECCENTRICITY":0.00020303,"INCLINATION":53.1595,"RA_OF_ASC_NODE":208.0419,"ARG_OF_PERICENTER":117.2011,"MEAN_ANOMALY":242.9214,"EPHEMERIS_TYPE":0,"CLASSIFICATION_TYPE":"U","NORAD_CAT_ID":60924,"ELEMENT_SET_NO":999,"REV_AT_EPOCH":6971,"BSTAR":6.0163282e-5,"MEAN_MOTION_DOT":6.705e-5,"MEAN_MOTION_DDOT":0},{"OBJECT_NAME":"STARLINK-11245 [DTC]","OBJECT_ID":"2024-155B","EPOCH":"2025-11-10T00:22:44.334624","MEAN_MOTION":15.69719233,"ECCENTRICITY":0.00014017,"INCLINATION":53.1594,"RA_OF_ASC_NODE":211.396,"ARG_OF_PERICENTER":70.8752,"MEAN_ANOMALY":289.2418,"EPHEMERIS_TYPE":0,"CLASSIFICATION_TYPE":"U","NORAD_CAT_ID":60925,"ELEMENT_SET_NO":999,"REV_AT_EPOCH":6960,"BSTAR":2.2948529e-5,"MEAN_MOTION_DOT":2.193e-5,"MEAN_MOTION_DDOT":0},{"OBJECT_NAME":"STARLINK-11244 [DTC]","OBJECT_ID":"2024-155C","EPOCH":"2025-11-10T16:57:07.623936","MEAN_MOTION":15.69682011,"ECCENTRICITY":0.00012397,"INCLINATION":53.16,"RA_OF_ASC_NODE":207.874,"ARG_OF_PERICENTER":106.3998,"MEAN_ANOMALY":253.7157,"EPHEMERIS_TYPE":0,"CLASSIFICATION_TYPE":"U","NORAD_CAT_ID":60926,"ELEMENT_SET_NO":999,"REV_AT_EPOCH":6976,"BSTAR":6.9887132e-5,"MEAN_MOTION_DOT":7.876e-5,"MEAN_MOTION_DDOT":0},{"OBJECT_NAME":"STARLINK-11243 [DTC]","OBJECT_ID":"2024-155D","EPOCH":"2025-11-10T17:04:12.530496","MEAN_MOTION":15.69708815,"ECCENTRICITY":7.652e-5,"INCLINATION":53.16,"RA_OF_ASC_NODE":207.9096,"ARG_OF_PERICENTER":81.9396,"MEAN_ANOMALY":278.1709,"EPHEMERIS_TYPE":0,"CLASSIFICATION_TYPE":"U","NORAD_CAT_ID":60927,"ELEMENT_SET_NO":999,"REV_AT_EPOCH":6971,"BSTAR":1.1621387e-5,"MEAN_MOTION_DOT":8.2e-6,"MEAN_MOTION_DDOT":0},{"OBJECT_NAME":"STARLINK-11238 [DTC]","OBJECT_ID":"2024-155E","EPOCH":"2025-11-10T10:43:20.406144","MEAN_MOTION":15.69718076,"ECCENTRICITY":0.00010949,"INCLINATION":53.1576,"RA_OF_ASC_NODE":209.0991,"ARG_OF_PERICENTER":87.8591,"MEAN_ANOMALY":272.2552,"EPHEMERIS_TYPE":0,"CLASSIFICATION_TYPE":"U","NORAD_CAT_ID":60928,"ELEMENT_SET_NO":999,"REV_AT_EPOCH":6972,"BSTAR":1.11659e-6,"MEAN_MOTION_DOT":-4.53e-6,"MEAN_MOTION_DDOT":0},{"OBJECT_NAME":"STARLINK-11240 [DTC]","OBJECT_ID":"2024-155F","EPOCH":"2025-11-10T16:43:00.497856","MEAN_MOTION":15.69723834,"ECCENTRICITY":0.00010626,"INCLINATION":53.1588,"RA_OF_ASC_NODE":207.8114,"ARG_OF_PERICENTER":86.0245,"MEAN_ANOMALY":274.0895,"EPHEMERIS_TYPE":0,"CLASSIFICATION_TYPE":"U","NORAD_CAT_ID":60929,"ELEMENT_SET_NO":999,"REV_AT_EPOCH":6971,"BSTAR":1.118333e-6,"MEAN_MOTION_DOT":-4.53e-6,"MEAN_MOTION_DDOT":0},{"OBJECT_NAME":"STARLINK-11251 [DTC]","OBJECT_ID":"2024-155G","EPOCH":"2025-11-10T10:29:12.950880","MEAN_MOTION":15.69704699,"ECCENTRICITY":0.00012527,"INCLINATION":53.1595,"RA_OF_ASC_NODE":209.0332,"ARG_OF_PERICENTER":103.3634,"MEAN_ANOMALY":256.7524,"EPHEMERIS_TYPE":0,"CLASSIFICATION_TYPE":"U","NORAD_CAT_ID":60930,"ELEMENT_SET_NO":999,"REV_AT_EPOCH":6967,"BSTAR":1.9819667e-5,"MEAN_MOTION_DOT":1.812e-5,"MEAN_MOTION_DDOT":0},{"OBJECT_NAME":"STARLINK-11204 [DTC]","OBJECT_ID":"2024-155H","EPOCH":"2025-11-10T10:22:09.359328","MEAN_MOTION":15.69712167,"ECCENTRICITY":6.964e-5,"INCLINATION":53.1591,"RA_OF_ASC_NODE":209.0002,"ARG_OF_PERICENTER":144.8327,"MEAN_ANOMALY":215.2737,"EPHEMERIS_TYPE":0,"CLASSIFICATION_TYPE":"U","NORAD_CAT_ID":60931,"ELEMENT_SET_NO":999,"REV_AT_EPOCH":6967,"BSTAR":3.04281e-7,"MEAN_MOTION_DOT":-5.51e-6,"MEAN_MOTION_DDOT":0},{"OBJECT_NAME":"STARLINK-11246 [DTC]","OBJECT_ID":"2024-155J","EPOCH":"2025-11-09T23:33:17.350848","MEAN_MOTION":15.69737657,"ECCENTRICITY":0.00011319,"INCLINATION":53.1595,"RA_OF_ASC_NODE":211.1639,"ARG_OF_PERICENTER":84.404,"MEAN_ANOMALY":275.7107,"EPHEMERIS_TYPE":0,"CLASSIFICATION_TYPE":"U","NORAD_CAT_ID":60932,"ELEMENT_SET_NO":999,"REV_AT_EPOCH":6960,"BSTAR":-1.2866745e-5,"MEAN_MOTION_DOT":-2.149e-5,"MEAN_MOTION_DDOT":0},{"OBJECT_NAME":"STARLINK-11207 [DTC]","OBJECT_ID":"2024-155K","EPOCH":"2025-11-10T17:46:26.128416","MEAN_MOTION":15.69718018,"ECCENTRICITY":9.766e-5,"INCLINATION":53.157,"RA_OF_ASC_NODE":207.3633,"ARG_OF_PERICENTER":94.4171,"MEAN_ANOMALY":265.6958,"EPHEMERIS_TYPE":0,"CLASSIFICATION_TYPE":"U","NORAD_CAT_ID":60933,"ELEMENT_SET_NO":999,"REV_AT_EPOCH":6972,"BSTAR":8.135335e-6,"MEAN_MOTION_DOT":3.97e-6,"MEAN_MOTION_DDOT":0},{"OBJECT_NAME":"STARLINK-11237 [DTC]","OBJECT_ID":"2024-155L","EPOCH":"2025-11-10T10:00:57.172032","MEAN_MOTION":15.69721474,"ECCENTRICITY":7.214e-5,"INCLINATION":53.1587,"RA_OF_ASC_NODE":208.9007,"ARG_OF_PERICENTER":91.9946,"MEAN_ANOMALY":268.1154,"EPHEMERIS_TYPE":0,"CLASSIFICATION_TYPE":"U","NORAD_CAT_ID":60934,"ELEMENT_SET_NO":999,"REV_AT_EPOCH":6968,"BSTAR":-8.67316e-7,"MEAN_MOTION_DOT":-6.93e-6,"MEAN_MOTION_DDOT":0},{"OBJECT_NAME":"STARLINK-11253 [DTC]","OBJECT_ID":"2024-155M","EPOCH":"2025-11-10T17:25:23.089152","MEAN_MOTION":15.69710261,"ECCENTRICITY":0.00013605,"INCLINATION":53.1567,"RA_OF_ASC_NODE":208.0042,"ARG_OF_PERICENTER":84.3551,"MEAN_ANOMALY":275.7622,"EPHEMERIS_TYPE":0,"CLASSIFICATION_TYPE":"U","NORAD_CAT_ID":60935,"ELEMENT_SET_NO":999,"REV_AT_EPOCH":6971,"BSTAR":2.34996e-5,"MEAN_MOTION_DOT":2.259e-5,"MEAN_MOTION_DDOT":0},{"OBJECT_NAME":"STARLINK-11241 [DTC]","OBJECT_ID":"2024-155N","EPOCH":"2025-11-10T03:33:10.139328","MEAN_MOTION":15.6972363,"ECCENTRICITY":0.00011399,"INCLINATION":53.1595,"RA_OF_ASC_NODE":210.7934,"ARG_OF_PERICENTER":65.5583,"MEAN_ANOMALY":294.5553,"EPHEMERIS_TYPE":0,"CLASSIFICATION_TYPE":"U","NORAD_CAT_ID":60936,"ELEMENT_SET_NO":999,"REV_AT_EPOCH":6962,"BSTAR":2.851834e-6,"MEAN_MOTION_DOT":-2.43e-6,"MEAN_MOTION_DDOT":0},{"OBJECT_NAME":"STARLINK-32259","OBJECT_ID":"2024-155P","EPOCH":"2025-11-10T17:16:11.885664","MEAN_MOTION":15.30197796,"ECCENTRICITY":0.00012949,"INCLINATION":53.1605,"RA_OF_ASC_NODE":322.4413,"ARG_OF_PERICENTER":81.6341,"MEAN_ANOMALY":278.4807,"EPHEMERIS_TYPE":0,"CLASSIFICATION_TYPE":"U","NORAD_CAT_ID":60937,"ELEMENT_SET_NO":999,"REV_AT_EPOCH":6812,"BSTAR":8.9064802e-5,"MEAN_MOTION_DOT":2.279e-5,"MEAN_MOTION_DDOT":0},{"OBJECT_NAME":"STARLINK-32262","OBJECT_ID":"2024-155Q","EPOCH":"2025-11-10T05:26:59.985024","MEAN_MOTION":15.30174996,"ECCENTRICITY":0.00013428,"INCLINATION":53.1601,"RA_OF_ASC_NODE":311.9693,"ARG_OF_PERICENTER":107.4552,"MEAN_ANOMALY":252.6596,"EPHEMERIS_TYPE":0,"CLASSIFICATION_TYPE":"U","NORAD_CAT_ID":60938,"ELEMENT_SET_NO":999,"REV_AT_EPOCH":6827,"BSTAR":-9.480332e-6,"MEAN_MOTION_DOT":-6.4e-6,"MEAN_MOTION_DDOT":0},{"OBJECT_NAME":"STARLINK-32258","OBJECT_ID":"2024-155R","EPOCH":"2025-11-10T07:32:07.021824","MEAN_MOTION":15.30203619,"ECCENTRICITY":0.00013475,"INCLINATION":53.1604,"RA_OF_ASC_NODE":324.171,"ARG_OF_PERICENTER":64.5817,"MEAN_ANOMALY":295.5323,"EPHEMERIS_TYPE":0,"CLASSIFICATION_TYPE":"U","NORAD_CAT_ID":60939,"ELEMENT_SET_NO":999,"REV_AT_EPOCH":6801,"BSTAR":2.6817502e-5,"MEAN_MOTION_DOT":4.35e-6,"MEAN_MOTION_DDOT":0}]
